COSMOS 2493 (SKRL-756 1)
1 39490U 13078A   26068.88109627  .00005252  00000+0  40276-3 0  9992
2 39490  82.4165 358.3033 0011855 214.7485 145.2966 15.01584319663059
STARLINK-34988          
1 65453U 25194V   26068.61370029  .00002505  00000+0  19946-3 0  9997
2 65453  97.6042 285.4211 0002492  53.9876 306.1579 15.01260784 29704
